{
  "norad_id": 67532,
  "name": "STARLINK-36587",
  "history": [
    {
      "epoch": "2026-03-28T15:52:49.545984Z",
      "apogee_km": 344.83494952565434,
      "perigee_km": 343.0872040256936,
      "latitude_deg": 1.6888917349564134e-06,
      "longitude_deg": -90.69836371070076,
      "height_km": 346.86125554591484,
      "semi_major_axis_km": 6722.098076775674,
      "eccentricity": 0.00013,
      "inclination_deg": 97.2853,
      "raan_deg": 333.587,
      "arg_perigee_deg": 72.2673,
      "mean_anomaly_deg": 287.8734,
      "mean_motion_rev_day": 15.75235516
    },
    {
      "epoch": "2026-03-29T04:04:40.418400Z",
      "apogee_km": 344.60542941442145,
      "perigee_km": 342.59428574663343,
      "latitude_deg": -4.815986256423242e-05,
      "longitude_deg": 86.37254211099362,
      "height_km": 346.16516800051716,
      "semi_major_axis_km": 6721.736857580527,
      "eccentricity": 0.0001496,
      "inclination_deg": 97.2852,
      "raan_deg": 334.1208,
      "arg_perigee_deg": 53.2828,
      "mean_anomaly_deg": 306.8574,
      "mean_motion_rev_day": 15.75362495
    },
    {
      "epoch": "2026-03-30T04:28:20.799840Z",
      "apogee_km": 344.79992140330705,
      "perigee_km": 343.06293892095346,
      "latitude_deg": -4.545752488223671e-05,
      "longitude_deg": 80.5182378187556,
      "height_km": 347.43871994406334,
      "semi_major_axis_km": 6722.06843016213,
      "eccentricity": 0.0001292,
      "inclination_deg": 97.2851,
      "raan_deg": 335.1866,
      "arg_perigee_deg": 113.0971,
      "mean_anomaly_deg": 247.043,
      "mean_motion_rev_day": 15.75245937
    },
    {
      "epoch": "2026-03-30T04:28:20.800704Z",
      "apogee_km": 344.8001902860442,
      "perigee_km": 343.0626700382163,
      "latitude_deg": -4.967014103917649e-05,
      "longitude_deg": 80.51823474440864,
      "height_km": 347.43882544998195,
      "semi_major_axis_km": 6722.06843016213,
      "eccentricity": 0.00012924,
      "inclination_deg": 97.2851,
      "raan_deg": 335.1866,
      "arg_perigee_deg": 113.0971,
      "mean_anomaly_deg": 247.043,
      "mean_motion_rev_day": 15.75245937
    },
    {
      "epoch": "2026-03-30T15:08:42.707040Z",
      "apogee_km": 344.6304635640172,
      "perigee_km": 342.71958684149376,
      "latitude_deg": -1.6865499864296736e-05,
      "longitude_deg": -79.54475965182338,
      "height_km": 347.56898402789835,
      "semi_major_axis_km": 6721.812025202756,
      "eccentricity": 0.00014214,
      "inclination_deg": 97.2848,
      "raan_deg": 335.6532,
      "arg_perigee_deg": 139.5187,
      "mean_anomaly_deg": 220.6184,
      "mean_motion_rev_day": 15.7533607
    },
    {
      "epoch": "2026-03-30T22:46:06.190464Z",
      "apogee_km": 344.9620467440627,
      "perigee_km": 342.5683773663495,
      "latitude_deg": -2.262502937475644e-05,
      "longitude_deg": 166.12732056519525,
      "height_km": 347.3977756739893,
      "semi_major_axis_km": 6721.902212055206,
      "eccentricity": 0.00017805,
      "inclination_deg": 97.2847,
      "raan_deg": 335.9862,
      "arg_perigee_deg": 112.9466,
      "mean_anomaly_deg": 247.1987,
      "mean_motion_rev_day": 15.75304366
    },
    {
      "epoch": "2026-03-31T04:52:01.312608Z",
      "apogee_km": 345.3179781800154,
      "perigee_km": 342.7350540705802,
      "latitude_deg": 8.608907933630832e-05,
      "longitude_deg": 74.66386903854415,
      "height_km": 347.650028148915,
      "semi_major_axis_km": 6722.163516125298,
      "eccentricity": 0.00019212,
      "inclination_deg": 97.2845,
      "raan_deg": 336.2529,
      "arg_perigee_deg": 110.7696,
      "mean_anomaly_deg": 249.3776,
      "mean_motion_rev_day": 15.75212514
    },
    {
      "epoch": "2026-04-01T05:15:42.272928Z",
      "apogee_km": 345.4751911229314,
      "perigee_km": 342.80510264018903,
      "latitude_deg": -1.733252580215108e-05,
      "longitude_deg": 68.80766038421767,
      "height_km": 347.5730273237735,
      "semi_major_axis_km": 6722.27714688156,
      "eccentricity": 0.0001986,
      "inclination_deg": 97.2842,
      "raan_deg": 337.3192,
      "arg_perigee_deg": 101.5658,
      "mean_anomaly_deg": 258.583,
      "mean_motion_rev_day": 15.75172574
    },
    {
      "epoch": "2026-04-02T16:00:01.999584Z",
      "apogee_km": 344.8785305171259,
      "perigee_km": 342.82429085881995,
      "latitude_deg": -75.57652901382014,
      "longitude_deg": -62.56138900923481,
      "height_km": 372.19546951186715,
      "semi_major_axis_km": 6721.988410687973,
      "eccentricity": 0.0001528,
      "inclination_deg": 97.2845,
      "raan_deg": 338.8401,
      "arg_perigee_deg": 79.7449,
      "mean_anomaly_deg": 202.8741,
      "mean_motion_rev_day": 15.75274065
    }
  ]
}